NORAD_CAT_ID,OBJECT_NAME,OBJECT_TYPE,EPOCH,MEAN_MOTION,ECCENTRICITY,INCLINATION,RA_OF_ASC_NODE,ARG_OF_PERICENTER,MEAN_ANOMALY,BSTAR,MEAN_MOTION_DOT,MEAN_MOTION_DDOT,TLE_LINE0,TLE_LINE1,TLE_LINE2,SEMIMAJOR_AXIS,PERIOD,APOGEE,PERIGEE,DECAYED
55755.0,STARLINK-5619,PAYLOAD,2023-05-13 18:41:57,14.9872188,0.0002942,69.9987,323.5809,267.1161,92.9662,-0.0052092,-0.00062328,0.0,0 STARLINK-5619,1 55755U 23028Q   23133.77913500 -.00062328  00000-0 -52092-2 0  9999,2 55755  69.9987 323.5809 0002942 267.1161  92.9662 14.98721880 11620,6948.981,96.082,572.891,568.802,0.0
55755.0,STARLINK-5619,PAYLOAD,2023-05-13 21:54:11,14.98703593,0.0003217,69.9989,323.2457,270.1531,89.9259,-0.0052979,-0.0006335,0.0,0 STARLINK-5619,1 55755U 23028Q   23133.91263173 -.00063350  00000-0 -52979-2 0  9999,2 55755  69.9989 323.2457 0003217 270.1531  89.9259 14.98703593 11640,6949.038,96.083,573.138,568.667,0.0
55755.0,STARLINK-5619,PAYLOAD,2023-05-14 13:55:20,14.98634617,0.0003104,69.9985,321.5601,263.3157,96.7649,-0.0047145,-0.00056339,0.0,0 STARLINK-5619,1 55755U 23028Q   23134.58010067 -.00056339  00000-0 -47145-2 0  9993,2 55755  69.9985 321.5601 0003104 263.3157  96.7649 14.98634617 11741,6949.251,96.087,573.273,568.959,0.0
55755.0,STARLINK-5619,PAYLOAD,2023-05-14 20:19:49,14.98612269,0.0003215,69.9984,320.8868,267.2051,92.874,-0.004479,-0.0005352,0.0,0 STARLINK-5619,1 55755U 23028Q   23134.84710146 -.00053520  00000-0 -44790-2 0  9999,2 55755  69.9984 320.8868 0003215 267.2051  92.8740 14.98612269 11788,6949.32,96.089,573.419,568.951,0.0
55755.0,STARLINK-5619,PAYLOAD,2023-05-15 05:56:36,14.98479331,0.000288,69.9987,319.8768,297.8153,62.2714,-0.0025231,-0.00030185,0.0,0 STARLINK-5619,1 55755U 23028Q   23135.24764942 -.00030185  00000-0 -25231-2 0  9998,2 55755  69.9987 319.8768 0002880 297.8153  62.2714 14.98479331 11847,6949.731,96.097,573.598,569.595,0.0
55755.0,STARLINK-5619,PAYLOAD,2023-05-15 12:21:11,14.98326017,0.00031,69.9982,319.2032,271.0886,88.9917,-4.4412e-06,-1.46e-06,0.0,0 STARLINK-5619,1 55755U 23028Q   23135.51471437 -.00000146  00000-0 -44412-5 0  9991,2 55755  69.9982 319.2032 0003100 271.0886  88.9917 14.98326017 11889,6950.205,96.107,574.225,569.916,0.0
55755.0,STARLINK-5619,PAYLOAD,2023-05-15 22:00:00,14.98315041,0.0003249,70.0002,318.1895,272.8835,94.7815,0.0025374,0.00030303,0.0,0 STARLINK-5619,1 55755U 23028Q   23135.91667824  .00030303  00000-0  25374-2 0  9991,2 55755  70.0002 318.1895 0003249 272.8835  94.7815 14.98315041 11941,6950.239,96.108,574.362,569.846,0.0
55755.0,STARLINK-5619,PAYLOAD,2023-05-16 14:00:01,14.98359822,0.0003301,70.0002,316.5085,267.0852,95.593,-0.0024872,-0.00029668,0.0,0 STARLINK-5619,1 55755U 23028Q   23136.58335648 -.00029668  00000-0 -24872-2 0  9997,2 55755  70.0002 316.5085 0003301 267.0852  95.5930 14.98359822 12042,6950.101,96.105,574.26,569.671,0.0
55755.0,STARLINK-5619,PAYLOAD,2023-05-16 22:00:00,14.98320431,0.0003251,69.9999,315.6679,272.2542,87.8694,0.0017643,0.00021017,0.0,0 STARLINK-5619,1 55755U 23028Q   23136.91667824  .00021017  00000-0  17643-2 0  9994,2 55755  69.9999 315.6679 0003251 272.2542  87.8694 14.98320431  1291,6950.222,96.108,574.347,569.828,0.0
55755.0,STARLINK-5619,PAYLOAD,2023-05-17 00:00:00,14.98329751,0.0003272,69.9997,315.4577,272.4737,177.0178,0.00024155,2.79e-05,0.0,0 STARLINK-5619,1 55755U 23028Q   23137.00001157  .00002790  00000-0  24155-3 0  9990,2 55755  69.9997 315.4577 0003272 272.4737 177.0178 14.98329751 12100,6950.194,96.107,574.333,569.785,0.0
55755.0,STARLINK-5619,PAYLOAD,2023-05-17 20:25:53,14.98330003,0.0003152,69.9983,313.3111,270.1874,89.8924,2.4649e-05,2.01e-06,0.0,0 STARLINK-5619,1 55755U 23028Q   23137.85131086  .00000201  00000-0  24649-4 0  9992,2 55755  69.9983 313.3111 0003152 270.1874  89.8924 14.98330003 12235,6950.193,96.107,574.249,569.867,0.0
55755.0,STARLINK-5619,PAYLOAD,2023-05-18 12:27:13,14.98331293,0.0003081,69.9989,311.6279,269.1166,90.964,-1.4788e-05,-2.69e-06,0.0,0 STARLINK-5619,1 55755U 23028Q   23138.51891077 -.00000269  00000-0 -14788-4 0  9998,2 55755  69.9989 311.6279 0003081 269.1166  90.9640 14.98331293 12331,6950.189,96.107,574.195,569.913,0.0
55755.0,STARLINK-5619,PAYLOAD,2023-05-19 17:17:38,14.98330376,0.0003138,69.9988,308.5979,268.1496,91.9304,5.6586e-06,-2.6e-07,0.0,0 STARLINK-5619,1 55755U 23028Q   23139.72058965 -.00000026  00000-0  56586-5 0  9996,2 55755  69.9988 308.5979 0003138 268.1496  91.9304 14.98330376 12519,6950.192,96.107,574.238,569.876,0.0
55755.0,STARLINK-5619,PAYLOAD,2023-05-19 20:29:55,14.98329258,0.0003068,69.9991,308.2613,267.2881,92.7927,3.1804e-05,2.86e-06,0.0,0 STARLINK-5619,1 55755U 23028Q   23139.85410967  .00000286  00000-0  31804-4 0  9996,2 55755  69.9991 308.2613 0003068 267.2881  92.7927 14.98329258 12534,6950.195,96.107,574.193,569.928,0.0
55755.0,STARLINK-5619,PAYLOAD,2023-05-20 17:19:39,14.98333533,0.0003222,69.9989,306.0736,271.2327,88.8463,4.9694e-05,5e-06,0.0,0 STARLINK-5619,1 55755U 23028Q   23140.72198574  .00000500  00000-0  49694-4 0  9996,2 55755  69.9989 306.0736 0003222 271.2327  88.8463 14.98333533 12661,6950.182,96.107,574.286,569.808,0.0
55755.0,STARLINK-5619,PAYLOAD,2023-05-20 20:31:55,14.98335333,0.0003162,69.9992,305.7373,271.6332,88.4465,6.6251e-05,6.98e-06,0.0,0 STARLINK-5619,1 55755U 23028Q   23140.85550386  .00000698  00000-0  66251-4 0  9999,2 55755  69.9992 305.7373 0003162 271.6332  88.4465 14.98335333 12681,6950.176,96.107,574.239,569.844,0.0
55755.0,STARLINK-5619,PAYLOAD,2023-05-21 10:57:09,14.98262589,0.0002763,69.9992,304.2226,273.8792,86.2051,0.00087952,0.00010399,0.0,0 STARLINK-5619,1 55755U 23028Q   23141.45635919  .00010399  00000-0  87952-3 0  9991,2 55755  69.9992 304.2226 0002763 273.8792  86.2051 14.98262589 12771,6950.401,96.111,574.187,570.346,0.0
55755.0,STARLINK-5619,PAYLOAD,2023-05-21 17:21:41,14.98323451,0.0003205,69.9996,303.5473,267.2122,92.8671,-5.8416e-05,-7.9e-06,0.0,0 STARLINK-5619,1 55755U 23028Q   23141.72339568 -.00000790  00000-0 -58416-4 0  9992,2 55755  69.9996 303.5473 0003205 267.2122  92.8671 14.98323451 12819,6950.213,96.107,574.306,569.851,0.0
55755.0,STARLINK-5619,PAYLOAD,2023-05-21 20:33:57,14.98322673,0.0003217,69.9989,303.211,268.8116,91.2674,-7.6236e-05,-1.002e-05,0.0,0 STARLINK-5619,1 55755U 23028Q   23141.85691743 -.00001002  00000-0 -76236-4 0  9999,2 55755  69.9989 303.2110 0003217 268.8116  91.2674 14.98322673 12832,6950.216,96.107,574.316,569.845,0.0
55755.0,STARLINK-5619,PAYLOAD,2023-05-22 09:23:01,14.98331208,0.0003269,69.999,301.8643,268.6953,91.3832,4.4686e-05,4.4e-06,0.0,0 STARLINK-5619,1 55755U 23028Q   23142.39098970  .00000440  00000-0  44686-4 0  9999,2 55755  69.9990 301.8643 0003269 268.6953  91.3832 14.98331208 12913,6950.189,96.107,574.326,569.782,0.0
55755.0,STARLINK-5619,PAYLOAD,2023-05-22 10:59:09,14.98332263,0.000329,69.9987,301.6961,268.8824,91.1958,3.4009e-05,3.13e-06,0.0,0 STARLINK-5619,1 55755U 23028Q   23142.45774926  .00000313  00000-0  34009-4 0  9995,2 55755  69.9987 301.6961 0003290 268.8824  91.1958 14.98332263 12923,6950.186,96.107,574.338,569.764,0.0
55755.0,STARLINK-5619,PAYLOAD,2023-05-22 17:23:41,14.98336993,0.0003334,69.9988,301.023,268.8639,91.2138,3.4726e-05,3.21e-06,0.0,0 STARLINK-5619,1 55755U 23028Q   23142.72478582  .00000321  00000-0  34726-4 0  9999,2 55755  69.9988 301.0230 0003334 268.8639  91.2138 14.98336993 12969,6950.171,96.107,574.353,569.719,0.0
55755.0,STARLINK-5619,PAYLOAD,2023-05-23 09:25:02,14.98326509,0.0003393,69.9987,299.3397,268.0571,92.02,0.0001369,1.541e-05,0.0,0 STARLINK-5619,1 55755U 23028Q   23143.39238846  .00001541  00000-0  13690-3 0  9991,2 55755  69.9987 299.3397 0003393 268.0571  92.0200 14.98326509 13066,6950.204,96.107,574.427,569.71,0.0
55755.0,STARLINK-5619,PAYLOAD,2023-05-23 20:37:58,14.98327487,0.0003393,69.9988,298.1613,268.005,92.0721,8.0145e-05,8.63e-06,0.0,0 STARLINK-5619,1 55755U 23028Q   23143.85971042  .00000863  00000-0  80145-4 0  9990,2 55755  69.9988 298.1613 0003393 268.0050  92.0721 14.98327487 13139,6950.201,96.107,574.424,569.707,0.0
55755.0,STARLINK-5619,PAYLOAD,2023-05-24 15:51:35,14.98333324,0.0003294,69.9992,296.1413,268.2417,91.8364,-1.6024e-05,-2.84e-06,0.0,0 STARLINK-5619,1 55755U 23028Q   23144.66082934 -.00000284  00000-0 -16024-4 0  9997,2 55755  69.9992 296.1413 0003294 268.2417  91.8364 14.98333324 13259,6950.183,96.107,574.337,569.758,0.0
55755.0,STARLINK-5619,PAYLOAD,2023-05-25 17:29:44,14.98328712,0.0003201,69.9995,293.4479,270.4388,89.6404,1.3649e-05,7e-07,0.0,0 STARLINK-5619,1 55755U 23028Q   23145.72898998  .00000070  00000-0  13649-4 0  9991,2 55755  69.9995 293.4479 0003201 270.4388  89.6404 14.98328712 13417,6950.197,96.107,574.287,569.837,0.0
55755.0,STARLINK-5619,PAYLOAD,2023-05-26 12:43:21,14.98332411,0.0003175,69.9997,291.4291,267.0732,93.0063,-7.2193e-06,-1.79e-06,0.0,0 STARLINK-5619,1 55755U 23028Q   23146.53010747 -.00000179  00000-0 -72193-5 0  9991,2 55755  69.9997 291.4291 0003175 267.0732  93.0063 14.98332411 13538,6950.185,96.107,574.257,569.844,0.0
55755.0,STARLINK-5619,PAYLOAD,2023-05-26 17:31:45,14.98331915,0.0003142,69.9998,290.9243,266.6768,93.4032,5.0078e-06,-3.3e-07,0.0,0 STARLINK-5619,1 55755U 23028Q   23146.73038715 -.00000033  00000-0  50078-5 0  9994,2 55755  69.9998 290.9243 0003142 266.6768  93.4032 14.98331915 13569,6950.187,96.107,574.236,569.868,0.0
55755.0,STARLINK-5619,PAYLOAD,2023-05-26 19:07:53,14.98331989,0.0003138,69.9999,290.756,266.6361,93.4439,5.8439e-06,-2.3e-07,0.0,0 STARLINK-5619,1 55755U 23028Q   23146.79714696 -.00000023  00000-0  58439-5 0  9997,2 55755  69.9999 290.7560 0003138 266.6361  93.4439 14.98331989 13577,6950.187,96.107,574.233,569.871,0.0
55755.0,STARLINK-5619,PAYLOAD,2023-05-27 19:09:54,14.98329475,0.0003325,69.9993,288.229,267.4425,92.6353,1.8841e-06,-7.1e-07,0.0,0 STARLINK-5619,1 55755U 23028Q   23147.79854836 -.00000071  00000-0  18841-5 0  9995,2 55755  69.9993 288.2290 0003325 267.4425  92.6353 14.98329475 13721,6950.195,96.107,574.37,569.749,0.0
